start=new Date('2022-08-26T00:00:00.000Z').valueOf();
sats=[{"CLASSIFICATION_TYPE":"U","MEAN_ANOMALY":"280.2870","OBJECT_ID":"2020-055A","EPHEMERIS_TYPE":"0","MEAN_MOTION_DOT":"0.00003306","BSTAR":"0.00024088000000","RCS_SIZE":"LARGE","MEAN_MOTION_DDOT":"0.0000000000000","APOAPSIS":"548.436","ECCENTRICITY":"0.00016650","DECAY_DATE":null,"SITE":"AFETR","PERIAPSIS":"546.129","LAUNCH_DATE":"2020-08-07","NORAD_CAT_ID":"46027","PERIOD":"95.594","MEAN_ELEMENT_THEORY":"SGP4","OBJECT_NAME":"STARLINK-1522","CENTER_NAME":"EARTH","TIME_SYSTEM":"UTC","OBJECT_TYPE":"PAYLOAD","COUNTRY_CODE":"US","ELEMENT_SET_NO":"999","SEMIMAJOR_AXIS":"6925.418","MEAN_MOTION":"15.06377492","ARG_OF_PERICENTER":"79.8306","EPOCH":"2022-08-25T04:35:58.437312","GP_ID":"210968813","FILE":"3547226","RA_OF_ASC_NODE":"168.8670","INCLINATION":"53.0558","TLE_LINE1":"1 46027U 20055A   22237.19164858  .00003306  00000-0  24088-3 0  9996","REF_FRAME":"TEME","TLE_LINE2":"2 46027  53.0558 168.8670 0001665  79.8306 280.2870 15.06377492114078","REV_AT_EPOCH":"11407"},{"TLE_LINE1":"1 46028U 20055B   22237.53811300 -.00000072  00000-0  14086-4 0  9992","RA_OF_ASC_NODE":"167.3009","INCLINATION":"53.0546","REF_FRAME":"TEME","FILE":"3547226","GP_ID":"210968564","TLE_LINE2":"2 46028  53.0546 167.3009 0001656  72.9399 287.1771 15.06398993114145","REV_AT_EPOCH":"11414","OBJECT_TYPE":"PAYLOAD","COUNTRY_CODE":"US","ELEMENT_SET_NO":"999","CENTER_NAME":"EARTH","TIME_SYSTEM":"UTC","MEAN_MOTION":"15.06398993","ARG_OF_PERICENTER":"72.9399","EPOCH":"2022-08-25T12:54:52.963200","SEMIMAJOR_AXIS":"6925.352","SITE":"AFETR","PERIAPSIS":"546.070","LAUNCH_DATE":"2020-08-07","DECAY_DATE":null,"APOAPSIS":"548.363","ECCENTRICITY":"0.00016560","MEAN_ELEMENT_THEORY":"SGP4","OBJECT_NAME":"STARLINK-1523","NORAD_CAT_ID":"46028","PERIOD":"95.592","OBJECT_ID":"2020-055B","MEAN_ANOMALY":"287.1771","CLASSIFICATION_TYPE":"U","RCS_SIZE":"LARGE","MEAN_MOTION_DDOT":"0.0000000000000","EPHEMERIS_TYPE":"0","MEAN_MOTION_DOT":"-0.00000072","BSTAR":"0.00001408600000"},{"SEMIMAJOR_AXIS":"6925.353","ARG_OF_PERICENTER":"64.8798","EPOCH":"2022-08-25T04:46:34.356000","MEAN_MOTION":"15.06398496","TIME_SYSTEM":"UTC","CENTER_NAME":"EARTH","ELEMENT_SET_NO":"999","COUNTRY_CODE":"US","OBJECT_TYPE":"PAYLOAD","REV_AT_EPOCH":"11408","TLE_LINE2":"2 46029  53.0535 168.8263 0001690  64.8798 295.2366 15.06398496114084","GP_ID":"210969813","FILE":"3547226","REF_FRAME":"TEME","INCLINATION":"53.0535","RA_OF_ASC_NODE":"168.8263","TLE_LINE1":"1 46029U 20055C   22237.19900875  .00000713  00000-0  66756-4 0  9993","BSTAR":"0.00006675600000","MEAN_MOTION_DOT":"0.00000713","EPHEMERIS_TYPE":"0","MEAN_MOTION_DDOT":"0.0000000000000","RCS_SIZE":"LARGE","CLASSIFICATION_TYPE":"U","MEAN_ANOMALY":"295.2366","OBJECT_ID":"2020-055C","PERIOD":"95.592","NORAD_CAT_ID":"46029","OBJECT_NAME":"STARLINK-1526","MEAN_ELEMENT_THEORY":"SGP4","APOAPSIS":"548.389","ECCENTRICITY":"0.00016900","DECAY_DATE":null,"LAUNCH_DATE":"2020-08-07","PERIAPSIS":"546.048","SITE":"AFETR"},{"EPHEMERIS_TYPE":"0","BSTAR":"0.00008535800000","MEAN_MOTION_DOT":"0.00000990","RCS_SIZE":"LARGE","MEAN_MOTION_DDOT":"0.0000000000000","CLASSIFICATION_TYPE":"U","MEAN_ANOMALY":"284.7844","OBJECT_ID":"2020-055D","NORAD_CAT_ID":"46030","PERIOD":"95.592","MEAN_ELEMENT_THEORY":"SGP4","OBJECT_NAME":"STARLINK-1534","ECCENTRICITY":"0.00017720","APOAPSIS":"548.440","DECAY_DATE":null,"PERIAPSIS":"545.986","SITE":"AFETR","LAUNCH_DATE":"2020-08-07","SEMIMAJOR_AXIS":"6925.348","MEAN_MOTION":"15.06400278","ARG_OF_PERICENTER":"75.3341","EPOCH":"2022-08-25T19:32:57.559776","CENTER_NAME":"EARTH","TIME_SYSTEM":"UTC","COUNTRY_CODE":"US","OBJECT_TYPE":"PAYLOAD","ELEMENT_SET_NO":"999","TLE_LINE2":"2 46030  53.0544 166.0791 0001772  75.3341 284.7844 15.06400278114136","REV_AT_EPOCH":"11413","GP_ID":"211003570","FILE":"3547674","RA_OF_ASC_NODE":"166.0791","INCLINATION":"53.0544","TLE_LINE1":"1 46030U 20055D   22237.81455509  .00000990  00000-0  85358-4 0  9999","REF_FRAME":"TEME"},{"MEAN_MOTION":"15.06396020","ARG_OF_PERICENTER":"74.7355","EPOCH":"2022-08-25T05:17:03.575328","SEMIMAJOR_AXIS":"6925.361","OBJECT_TYPE":"PAYLOAD","COUNTRY_CODE":"US","ELEMENT_SET_NO":"999","CENTER_NAME":"EARTH","TIME_SYSTEM":"UTC","TLE_LINE2":"2 46031  53.0548 168.7331 0001485  74.7355 285.3798 15.06396020114076","REV_AT_EPOCH":"11407","RA_OF_ASC_NODE":"168.7331","INCLINATION":"53.0548","TLE_LINE1":"1 46031U 20055E   22237.22018027 -.00002177  00000-0 -12729-3 0  9997","REF_FRAME":"TEME","GP_ID":"210968314","FILE":"3547226","RCS_SIZE":"LARGE","MEAN_MOTION_DDOT":"0.0000000000000","EPHEMERIS_TYPE":"0","MEAN_MOTION_DOT":"-0.00002177","BSTAR":"-0.00012729000000","MEAN_ANOMALY":"285.3798","OBJECT_ID":"2020-055E","CLASSIFICATION_TYPE":"U","MEAN_ELEMENT_THEORY":"SGP4","OBJECT_NAME":"STARLINK-1544","NORAD_CAT_ID":"46031","PERIOD":"95.592","SITE":"AFETR","PERIAPSIS":"546.197","LAUNCH_DATE":"2020-08-07","APOAPSIS":"548.254","ECCENTRICITY":"0.00014850","DECAY_DATE":null},{"RCS_SIZE":"LARGE","MEAN_MOTION_DDOT":"0.0000000000000","EPHEMERIS_TYPE":"0","MEAN_MOTION_DOT":"0.00000068","BSTAR":"0.00002345200000","MEAN_ANOMALY":"295.1849","OBJECT_ID":"2020-055F","CLASSIFICATION_TYPE":"U","MEAN_ELEMENT_THEORY":"SGP4","OBJECT_NAME":"STARLINK-1555","NORAD_CAT_ID":"46032","PERIOD":"95.593","SITE":"AFETR","PERIAPSIS":"545.999","LAUNCH_DATE":"2020-08-07","APOAPSIS":"548.504","ECCENTRICITY":"0.00018090","DECAY_DATE":null,"MEAN_MOTION":"15.06387672","ARG_OF_PERICENTER":"64.9327","EPOCH":"2022-08-25T04:25:20.745696","SEMIMAJOR_AXIS":"6925.386","COUNTRY_CODE":"US","OBJECT_TYPE":"PAYLOAD","ELEMENT_SET_NO":"999","CENTER_NAME":"EARTH","TIME_SYSTEM":"UTC","TLE_LINE2":"2 46032  53.0548 168.9098 0001809  64.9327 295.1849 15.06387672113561","REV_AT_EPOCH":"11356","RA_OF_ASC_NODE":"168.9098","INCLINATION":"53.0548","TLE_LINE1":"1 46032U 20055F   22237.18426789  .00000068  00000-0  23452-4 0  9992","REF_FRAME":"TEME","GP_ID":"210939928","FILE":"3546791"},{"PERIAPSIS":"546.045","SITE":"AFETR","LAUNCH_DATE":"2020-08-07","DECAY_DATE":null,"APOAPSIS":"548.426","ECCENTRICITY":"0.00017190","MEAN_ELEMENT_THEORY":"SGP4","OBJECT_NAME":"STARLINK-1556","NORAD_CAT_ID":"46033","PERIOD":"95.593","OBJECT_ID":"2020-055G","MEAN_ANOMALY":"277.9310","CLASSIFICATION_TYPE":"U","RCS_SIZE":"LARGE","MEAN_MOTION_DDOT":"0.0000000000000","EPHEMERIS_TYPE":"0","BSTAR":"-0.00004401200000","MEAN_MOTION_DOT":"-0.00000937","TLE_LINE1":"1 46033U 20055G   22237.82930435 -.00000937  00000-0 -44012-4 0  9994","INCLINATION":"53.0531","RA_OF_ASC_NODE":"166.0141","REF_FRAME":"TEME","FILE":"3547674","GP_ID":"211004807","TLE_LINE2":"2 46033  53.0531 166.0141 0001719  82.1874 277.9310 15.06392736114155","REV_AT_EPOCH":"11415","OBJECT_TYPE":"PAYLOAD","COUNTRY_CODE":"US","ELEMENT_SET_NO":"999","CENTER_NAME":"EARTH","TIME_SYSTEM":"UTC","MEAN_MOTION":"15.06392736","ARG_OF_PERICENTER":"82.1874","EPOCH":"2022-08-25T19:54:11.895840","SEMIMAJOR_AXIS":"6925.371"},{"LAUNCH_DATE":"2020-08-07","PERIAPSIS":"546.077","SITE":"AFETR","DECAY_DATE":null,"ECCENTRICITY":"0.00016560","APOAPSIS":"548.371","OBJECT_NAME":"STARLINK-1557","MEAN_ELEMENT_THEORY":"SGP4","PERIOD":"95.592","NORAD_CAT_ID":"46034","OBJECT_ID":"2020-055H","MEAN_ANOMALY":"287.3956","CLASSIFICATION_TYPE":"U","MEAN_MOTION_DDOT":"0.0000000000000","RCS_SIZE":"LARGE","MEAN_MOTION_DOT":"0.00002307","BSTAR":"0.00017372000000","EPHEMERIS_TYPE":"0","REF_FRAME":"TEME","TLE_LINE1":"1 46034U 20055H   22237.16951842  .00002307  00000-0  17372-3 0  9996","INCLINATION":"53.0536","RA_OF_ASC_NODE":"168.9637","FILE":"3547226","GP_ID":"210970064","REV_AT_EPOCH":"11405","TLE_LINE2":"2 46034  53.0536 168.9637 0001656  72.7214 287.3956 15.06396509114057","ELEMENT_SET_NO":"999","COUNTRY_CODE":"US","OBJECT_TYPE":"PAYLOAD","TIME_SYSTEM":"UTC","CENTER_NAME":"EARTH","ARG_OF_PERICENTER":"72.7214","EPOCH":"2022-08-25T04:04:06.391488","MEAN_MOTION":"15.06396509","SEMIMAJOR_AXIS":"6925.359"},{"CENTER_NAME":"EARTH","TIME_SYSTEM":"UTC","COUNTRY_CODE":"US","OBJECT_TYPE":"PAYLOAD","ELEMENT_SET_NO":"999","SEMIMAJOR_AXIS":"6925.347","MEAN_MOTION":"15.06400609","ARG_OF_PERICENTER":"77.9814","EPOCH":"2022-08-25T20:10:07.465152","FILE":"3547674","GP_ID":"211003817","TLE_LINE1":"1 46035U 20055J   22237.84036418 -.00000075  00000-0  13844-4 0  9997","RA_OF_ASC_NODE":"165.9429","INCLINATION":"53.0548","REF_FRAME":"TEME","TLE_LINE2":"2 46035  53.0548 165.9429 0001562  77.9814 282.1350 15.06400609114188","REV_AT_EPOCH":"11418","CLASSIFICATION_TYPE":"U","OBJECT_ID":"2020-055J","MEAN_ANOMALY":"282.1350","EPHEMERIS_TYPE":"0","BSTAR":"0.00001384400000","MEAN_MOTION_DOT":"-0.00000075","RCS_SIZE":"LARGE","MEAN_MOTION_DDOT":"0.0000000000000","DECAY_DATE":null,"ECCENTRICITY":"0.00015620","APOAPSIS":"548.293","SITE":"AFETR","PERIAPSIS":"546.130","LAUNCH_DATE":"2020-08-07","NORAD_CAT_ID":"46035","PERIOD":"95.592","MEAN_ELEMENT_THEORY":"SGP4","OBJECT_NAME":"STARLINK-1558"},{"CLASSIFICATION_TYPE":"U","OBJECT_ID":"2020-055K","MEAN_ANOMALY":"290.1971","MEAN_MOTION_DOT":"0.00008922","BSTAR":"0.00061793000000","EPHEMERIS_TYPE":"0","MEAN_MOTION_DDOT":"0.0000000000000","RCS_SIZE":"LARGE","DECAY_DATE":null,"ECCENTRICITY":"0.00019880","APOAPSIS":"548.747","LAUNCH_DATE":"2020-08-07","SITE":"AFETR","PERIAPSIS":"545.994","PERIOD":"95.595","NORAD_CAT_ID":"46036","OBJECT_NAME":"STARLINK-1560","MEAN_ELEMENT_THEORY":"SGP4","TIME_SYSTEM":"UTC","CENTER_NAME":"EARTH","ELEMENT_SET_NO":"999","OBJECT_TYPE":"PAYLOAD","COUNTRY_CODE":"US","SEMIMAJOR_AXIS":"6925.505","ARG_OF_PERICENTER":"69.9232","EPOCH":"2022-08-25T19:48:53.107488","MEAN_MOTION":"15.06348812","FILE":"3547674","GP_ID":"211004562","REF_FRAME":"TEME","TLE_LINE1":"1 46036U 20055K   22237.82561467  .00008922  00000-0  61793-3 0  9996","RA_OF_ASC_NODE":"166.0320","INCLINATION":"53.0543","REV_AT_EPOCH":"11418","TLE_LINE2":"2 46036  53.0543 166.0320 0001988  69.9232 290.1971 15.06348812114188"}];
